NORAD_CAT_ID,OBJECT_NAME,OBJECT_TYPE,EPOCH,MEAN_MOTION,ECCENTRICITY,INCLINATION,RA_OF_ASC_NODE,ARG_OF_PERICENTER,MEAN_ANOMALY,BSTAR,MEAN_MOTION_DOT,MEAN_MOTION_DDOT,TLE_LINE0,TLE_LINE1,TLE_LINE2,SEMIMAJOR_AXIS,PERIOD,APOGEE,PERIGEE,DECAYED
56796.0,STARLINK-6049,PAYLOAD,2024-03-31 22:33:31,14.98335507,0.0003245,70.0,329.048,270.9486,89.1301,0.00011175,1.241e-05,0.0,0 STARLINK-6049,1 56796U 23078AF  24091.93994215  .00001241  00000-0  11175-3 0  9997,2 56796  70.0000 329.0480 0003245 270.9486  89.1301 14.98335507 46667,6950.176,96.107,574.296,569.786,0.0
56796.0,STARLINK-6049,PAYLOAD,2024-04-01 14:34:52,14.98327817,0.0003135,70.0,327.3646,271.2964,88.7836,-2.7909e-05,-4.26e-06,0.0,0 STARLINK-6049,1 56796U 23078AF  24092.60754968 -.00000426  00000-0 -27909-4 0  9990,2 56796  70.0000 327.3646 0003135 271.2964  88.7836 14.98327817 46769,6950.2,96.107,574.244,569.886,0.0
56796.0,STARLINK-6049,PAYLOAD,2024-04-01 19:23:16,14.98327627,0.0003144,69.9999,326.8596,271.2221,88.8577,-2.9122e-05,-4.4e-06,0.0,0 STARLINK-6049,1 56796U 23078AF  24092.80782983 -.00000440  00000-0 -29122-4 0  9995,2 56796  69.9999 326.8596 0003144 271.2221  88.8577 14.98327627 47052,6950.2,96.107,574.25,569.88,0.0
56796.0,STARLINK-6049,PAYLOAD,2024-04-02 08:12:23,14.98300797,0.0003189,69.9998,325.513,271.847,88.2323,-0.00032297,-3.942e-05,0.0,0 STARLINK-6049,1 56796U 23078AF  24093.34193627 -.00003942  00000-0 -32297-3 0  9992,2 56796  69.9998 325.5130 0003189 271.8470  88.2323 14.98300797 47133,6950.283,96.109,574.365,569.932,0.0
56796.0,STARLINK-6049,PAYLOAD,2024-04-02 21:01:28,14.98300712,0.0003032,69.9989,324.1673,267.0549,93.0263,-0.00027511,-3.372e-05,0.0,0 STARLINK-6049,1 56796U 23078AF  24093.87602426 -.00003372  00000-0 -27511-3 0  9992,2 56796  69.9989 324.1673 0003032 267.0549  93.0263 14.98300712 46954,6950.283,96.109,574.256,570.041,0.0
56796.0,STARLINK-6049,PAYLOAD,2024-04-03 01:49:50,14.98326221,0.0002794,70.0,323.6624,265.3067,94.7773,-4.814e-05,-6.67e-06,0.0,0 STARLINK-6049,1 56796U 23078AF  24094.07628312 -.00000667  00000-0 -48140-4 0  9993,2 56796  70.0000 323.6624 0002794 265.3067  94.7773 14.98326221 47241,6950.205,96.107,574.011,570.128,0.0
56796.0,STARLINK-6049,PAYLOAD,2024-04-03 08:14:22,14.98328917,0.0002885,69.9999,322.9888,269.6562,90.4266,3.5176e-05,3.27e-06,0.0,0 STARLINK-6049,1 56796U 23078AF  24094.34332026  .00000327  00000-0  35176-4 0  9993,2 56796  69.9999 322.9888 0002885 269.6562  90.4266 14.98328917 47027,6950.196,96.107,574.066,570.056,0.0
56796.0,STARLINK-6049,PAYLOAD,2024-04-03 21:03:27,14.98331957,0.0003154,69.9989,321.641,269.917,90.1627,0.0001193,1.331e-05,0.0,0 STARLINK-6049,1 56796U 23078AF  24094.87739626  .00001331  00000-0  11930-3 0  9995,2 56796  69.9989 321.6410 0003154 269.9170  90.1627 14.98331957 47364,6950.187,96.107,574.244,569.86,0.0
56796.0,STARLINK-6049,PAYLOAD,2024-04-04 08:16:22,14.98353415,0.0002981,69.9991,320.4622,275.2981,84.7838,-0.00012911,-1.634e-05,0.0,0 STARLINK-6049,1 56796U 23078AF  24095.34470701 -.00001634  00000-0 -12911-3 0  9992,2 56796  69.9991 320.4622 0002981 275.2981  84.7838 14.98353415 47430,6950.12,96.105,574.057,569.914,0.0
56796.0,STARLINK-6049,PAYLOAD,2024-04-04 21:05:27,14.98305567,0.0003168,69.9987,319.1156,266.5747,93.505,0.00085035,0.00010061,0.0,0 STARLINK-6049,1 56796U 23078AF  24095.87879286  .00010061  00000-0  85035-3 0  9990,2 56796  69.9987 319.1156 0003168 266.5747  93.5050 14.98305567 47511,6950.268,96.109,574.335,569.932,0.0
56796.0,STARLINK-6049,PAYLOAD,2024-04-05 00:17:43,14.98335017,0.0003099,69.9986,318.7788,268.929,91.1514,0.00042257,4.953e-05,0.0,0 STARLINK-6049,1 56796U 23078AF  24096.01230578  .00004953  00000-0  42257-3 0  9994,2 56796  69.9986 318.7788 0003099 268.9290  91.1514 14.98335017 47532,6950.177,96.107,574.196,569.889,0.0
56796.0,STARLINK-6049,PAYLOAD,2024-04-05 14:42:55,14.98345722,0.0002799,69.9991,317.2642,273.7494,86.3345,2.7776e-05,2.39e-06,0.0,0 STARLINK-6049,1 56796U 23078AF  24096.61314429  .00000239  00000-0  27776-4 0  9991,2 56796  69.9991 317.2642 0002799 273.7494  86.3345 14.98345722 47360,6950.144,96.106,573.955,570.064,0.0
56796.0,STARLINK-6049,PAYLOAD,2024-04-05 21:07:27,14.98343837,0.0002855,69.9985,316.589,269.0403,91.0429,7.6758e-05,8.23e-06,0.0,0 STARLINK-6049,1 56796U 23078AF  24096.88018047  .00000823  00000-0  76758-4 0  9990,2 56796  69.9985 316.5890 0002855 269.0403  91.0429 14.98343837 47407,6950.15,96.106,573.999,570.031,0.0
56796.0,STARLINK-6049,PAYLOAD,2024-04-06 00:19:43,14.98346251,0.0002937,69.9985,316.2526,269.7125,90.3698,2.686e-05,2.28e-06,0.0,0 STARLINK-6049,1 56796U 23078AF  24097.01369880  .00000228  00000-0  26860-4 0  9998,2 56796  69.9985 316.2526 0002937 269.7125  90.3698 14.98346251 47682,6950.143,96.106,574.049,569.966,0.0
56796.0,STARLINK-6049,PAYLOAD,2024-04-06 21:09:29,14.98332232,0.0002894,70.0004,314.0659,270.7825,89.3002,-0.00010815,-1.383e-05,0.0,0 STARLINK-6049,1 56796U 23078AF  24097.88158572 -.00001383  00000-0 -10815-3 0  9994,2 56796  70.0004 314.0659 0002894 270.7825  89.3002 14.98332232 47817,6950.186,96.107,574.062,570.04,0.0
56796.0,STARLINK-6049,PAYLOAD,2024-04-06 22:45:37,14.9832935,0.0002869,69.9988,313.8958,271.191,88.892,-0.00018985,-2.357e-05,0.0,0 STARLINK-6049,1 56796U 23078AF  24097.94834931 -.00002357  00000-0 -18985-3 0  9999,2 56796  69.9988 313.8958 0002869 271.1910  88.8920 14.98329350 47568,6950.195,96.107,574.054,570.066,0.0
56796.0,STARLINK-6049,PAYLOAD,2024-04-07 00:21:45,14.98327117,0.0002804,69.999,313.7275,270.1144,89.9693,-0.00012823,-1.623e-05,0.0,0 STARLINK-6049,1 56796U 23078AF  24098.01510919 -.00001623  00000-0 -12823-3 0  9995,2 56796  69.9990 313.7275 0002804 270.1144  89.9693 14.98327117 47578,6950.202,96.107,574.016,570.118,0.0
56796.0,STARLINK-6049,PAYLOAD,2024-04-07 21:11:28,14.98346218,0.0003156,69.9979,311.5404,270.1934,89.8863,4.2003e-05,4.08e-06,0.0,0 STARLINK-6049,1 56796U 23078AF  24098.88296600  .00000408  00000-0  42003-4 0  9990,2 56796  69.9979 311.5404 0003156 270.1934  89.8863 14.98346218 47967,6950.143,96.106,574.201,569.814,0.0
56796.0,STARLINK-6049,PAYLOAD,2024-04-07 22:47:36,14.98349286,0.0003076,69.9983,311.3718,270.6178,89.4629,7.7858e-05,8.37e-06,0.0,0 STARLINK-6049,1 56796U 23078AF  24098.94972232  .00000837  00000-0  77858-4 0  9991,2 56796  69.9983 311.3718 0003076 270.6178  89.4629 14.98349286 47711,6950.133,96.106,574.136,569.86,0.0
56796.0,STARLINK-6049,PAYLOAD,2024-04-08 13:12:49,14.98320275,0.0002486,70.0021,309.8568,274.4678,85.6197,8.9838e-05,9.79e-06,0.0,0 STARLINK-6049,1 56796U 23078AF  24099.55057731  .00000979  00000-0  89838-4 0  9995,2 56796  70.0021 309.8568 0002486 274.4678  85.6197 14.98320275 48067,6950.223,96.108,573.816,570.36,0.0
56796.0,STARLINK-6049,PAYLOAD,2024-04-08 22:49:38,14.98315269,0.0002538,70.002,308.8469,274.7228,85.3641,9.5059e-06,2e-07,0.0,0 STARLINK-6049,1 56796U 23078AF  24099.95114538  .00000020  00000-0  95059-5 0  9998,2 56796  70.0020 308.8469 0002538 274.7228  85.3641 14.98315269 47862,6950.238,96.108,573.867,570.339,0.0
56796.0,STARLINK-6049,PAYLOAD,2024-04-09 00:25:47,14.98313494,0.0002583,70.0015,308.6784,275.0716,85.0148,1.1446e-06,-7.9e-07,0.0,0 STARLINK-6049,1 56796U 23078AF  24100.01790703 -.00000079  00000-0  11446-5 0  9995,2 56796  70.0015 308.6784 0002583 275.0716  85.0148 14.98313494 48138,6950.244,96.108,573.904,570.314,0.0
56796.0,STARLINK-6049,PAYLOAD,2024-04-09 06:50:19,14.98319612,0.000263,70.0006,308.0064,268.803,91.2827,7.5424e-06,-3e-08,0.0,0 STARLINK-6049,1 56796U 23078AF  24100.28494567 -.00000003  00000-0  75424-5 0  9996,2 56796  70.0006 308.0064 0002630 268.8030  91.2827 14.98319612 47911,6950.225,96.108,573.918,570.262,0.0
56796.0,STARLINK-6049,PAYLOAD,2024-04-09 19:39:27,14.9828766,0.0001324,70.002,306.6593,276.5268,83.574,-0.00041359,-5.018e-05,0.0,0 STARLINK-6049,1 56796U 23078AF  24100.81906828 -.00005018  00000-0 -41359-3 0  9993,2 56796  70.0020 306.6593 0001324 276.5268  83.5740 14.98287660 48259,6950.324,96.11,573.109,571.269,0.0
56796.0,STARLINK-6049,PAYLOAD,2024-04-10 00:27:49,14.9831485,0.0002263,70.0018,306.1541,271.3492,88.7408,-8.8335e-05,-1.146e-05,0.0,0 STARLINK-6049,1 56796U 23078AF  24101.01932720 -.00001146  00000-0 -88335-4 0  9990,2 56796  70.0018 306.1541 0002263 271.3492  88.7408 14.98314850 48282,6950.24,96.108,573.678,570.532,0.0
56796.0,STARLINK-6049,PAYLOAD,2024-04-10 13:16:53,14.98321987,0.0002925,69.9986,304.8064,268.3214,91.761,0.00015821,1.795e-05,0.0,0 STARLINK-6049,1 56796U 23078AF  24101.55339762  .00001795  00000-0  15821-3 0  9993,2 56796  69.9986 304.8064 0002925 268.3214  91.7610 14.98321987 48368,6950.218,96.108,574.116,570.05,0.0
56796.0,STARLINK-6049,PAYLOAD,2024-04-10 22:53:41,14.98328136,0.0002975,69.9979,303.7963,270.324,89.7578,0.00019749,2.264e-05,0.0,0 STARLINK-6049,1 56796U 23078AF  24101.95395498  .00002264  00000-0  19749-3 0  9990,2 56796  69.9979 303.7963 0002975 270.3240  89.7578 14.98328136 48164,6950.199,96.107,574.131,569.996,0.0
56796.0,STARLINK-6049,PAYLOAD,2024-04-11 06:54:21,14.98332865,0.000292,69.9979,302.9546,270.4606,89.6219,0.00021915,2.523e-05,0.0,0 STARLINK-6049,1 56796U 23078AF  24102.28775226  .00002523  00000-0  21915-3 0  9994,2 56796  69.9979 302.9546 0002920 270.4606  89.6219 14.98332865 48478,6950.184,96.107,574.078,570.02,0.0
56796.0,STARLINK-6049,PAYLOAD,2024-04-11 14:55:05,14.98183901,0.0001775,69.9977,302.113,253.3945,106.7019,0.0028346,0.00033763,0.0,0 STARLINK-6049,1 56796U 23078AF  24102.62158571  .00033763  00000-0  28346-2 0  9994,2 56796  69.9977 302.1130 0001775 253.3945 106.7019 14.98183901 48261,6950.645,96.116,573.743,571.276,0.0
56796.0,STARLINK-6049,PAYLOAD,2024-04-11 21:19:34,14.9834732,0.0002973,69.998,301.4395,269.0557,91.0261,0.00015455,1.752e-05,0.0,0 STARLINK-6049,1 56796U 23078AF  24102.88858918  .00001752  00000-0  15455-3 0  9995,2 56796  69.9980 301.4395 0002973 269.0557  91.0261 14.98347320 48301,6950.139,96.106,574.071,569.938,0.0
